139P/Vaisala-Oterma,e,2.3342,242.1667,165.7138,4.521967,0.1024974,0.24694551,139.0131,08/27.0/2021,2000,g  9.5,4.0
# From MPEC 2015-E14
140P/Bowell-Skiff,e,3.8358,343.2670,172.8554,6.427875,0.0604788,0.69166542,133.9021,08/27.0/2021,2000,g 11.5,6.0
# From MPEC 2021-AJ0
141P/Machholz,e,13.9452,241.8402,153.5514,3.057307,0.1843722,0.73577437,46.7766,08/27.0/2021,2000,g 14.7,4.0
# From MPC133426
142P/Ge-Wang,e,12.2509,175.9318,173.9526,5.000238,0.0881491,0.49743370,9.3778,08/27.0/2021,2000,g 15.2,4.0
# From MPEC 2021-N06
143P/Kowal-Mrkos,e,4.6988,245.2061,320.3790,4.281343,0.1112587,0.41089389,134.6004,08/27.0/2021,2000,g 13.5,2.0
# From MPC104795
144P/Kushida,e,3.9373,243.2221,216.2956,3.820760,0.1319713,0.63588909,243.6466,08/27.0/2021,2000,g  8.5,8.0
# From MPC108598
145P/Shoemaker-Levy,e,11.2742,26.7887,10.2398,4.138177,0.1170821,0.54158172,170.4104,08/27.0/2021,2000,g 13.5,4.0
# From MPC100284
146P/Shoemaker-LINEAR,e,23.0993,53.3932,316.9540,4.031925,0.1217406,0.64712170,229.1882,08/27.0/2021,2000,g 15.0,4.0
# From MPC 75720
147P/Kushida-Muramatsu,e,2.3274,92.8660,349.3648,4.006982,0.1228791,0.22702107,257.5737,08/27.0/2021,2000,g 14.0,4.0
# From MPEC 2014-R70
148P/Anderson-LINEAR,e,3.6578,89.2252,7.9470,3.620898,0.1430473,0.54998211,318.4360,08/27.0/2021,2000,g  9.0,4.0
# From MPC 75720
149P/Mueller,e,36.5311,144.5489,34.0994,4.149905,0.1165861,0.33787755,123.4608,08/27.0/2021,2000,g  8.0,8.0
# From MPC 75720
150P/LONEOS,e,18.5056,272.3635,245.5701,3.879412,0.1289897,0.54725775,240.0930,08/27.0/2021,2000,g 13.5,4.0
# From MPEC 2015-Q71
151P/Helin,e,4.7287,143.1579,216.0523,5.763352,0.0712347,0.57359647,152.9362,08/27.0/2021,2000,g 10.0,6.0
# From MPEC 2021-F20
152P/Helin-Lawrence,e,9.8800,91.8600,163.9230,4.477485,0.1040286,0.30876722,345.4790,08/27.0/2021,2000,g 12.6,4.0
# From MPC 46101
153P/Ikeya-Zhang,e,27.8489,93.1822,35.0608,50.60648,0.0027378,0.98962664,0.0000,03/05.3219/2002,2000,g  9.0,4.0
# From MPC 87068
154P/Brewington,e,17.6331,343.0399,47.8401,4.802566,0.0936471,0.67574616,264.2965,08/27.0/2021,2000,g  2.5,12.0
# From MPEC 2021-F20
155P/Shoemaker,e,6.3966,97.1908,14.6141,6.576802,0.0584362,0.72619175,38.0491,08/27.0/2021,2000,g 13.8,4.0
# From MPEC 2021-O56
156P/Russell-LINEAR,e,17.2626,35.3608,0.4406,3.461060,0.1530701,0.61486985,43.1820,08/27.0/2021,2000,g 15.5,2.0
# From MPEC 2021-P47
157P/Tritton,e,12.4420,287.6568,154.9138,3.550483,0.1473238,0.55756801,304.2389,08/27.0/2021,2000,g 10.0,4.0
# From MPEC 2021-P47
158P/Kowal-LINEAR,e,8.0113,135.5238,172.4099,5.020559,0.0876145,0.04411740,9.2192,08/27.0/2021,2000,g  9.0,4.0
# From MPEC 2021-N06
159P/LONEOS,e,23.4674,54.9759,4.5642,5.853788,0.0695903,0.38183090,83.0209,08/27.0/2021,2000,g 10.0,4.0
# From MPEC 2021-J28
160P/LINEAR,e,15.6173,333.3587,12.7150,3.774640,0.1343974,0.52632628,85.1469,08/27.0/2021,2000,g 15.5,2.0
# From MPC 75721
161P/Hartley-IRAS,e,95.7888,1.5541,46.9571,7.724095,0.0459127,0.83484309,271.8554,08/27.0/2021,2000,g  8.5,6.0
# From MPEC 2021-N06
162P/Siding Spring,e,27.5549,30.9044,357.1474,3.091218,0.1813467,0.58296832,47.5423,08/27.0/2021,2000,g 12.0,4.0
# From MPEC 2020-HN5
163P/NEAT,e,12.7088,102.0844,349.5992,3.767258,0.1347926,0.45190111,101.4976,08/27.0/2021,2000,g 14.5,4.0
# From MPEC 2021-F20
164P/Christensen,e,16.2571,88.2873,325.8330,3.656456,0.1409657,0.54016053,166.8376,08/27.0/2021,2000,g 11.0,4.0
# From MPC 75721
165P/LINEAR,e,15.8955,0.8469,125.9927,17.87554,0.0130411,0.61501934,101.3962,08/27.0/2021,2000,g 11.5,2.0
# From MPC 75722
166P/NEAT,e,15.3707,64.4339,321.4642,13.81806,0.0191882,0.38364904,135.1086,08/27.0/2021,2000,g  5.5,4.0
# From MPC 75722
167P/CINEOS,e,19.1188,295.6667,344.5576,16.21924,0.0150889,0.27190680,111.8364,08/27.0/2021,2000,g  9.5,2.0
# From MPC102101
168P/Hergenrother,e,21.6222,355.4522,14.9989,3.582267,0.1453674,0.62098325,109.4035,08/27.0/2021,2000,g 15.5,4.0
# From MPEC 2021-N06
169P/NEAT,e,11.2987,176.1066,218.0482,2.601347,0.2349127,0.76822243,285.6012,08/27.0/2021,2000,g 16.0,2.0
# From MPEC 2021-O56
170P/Christensen,e,10.1251,142.9225,225.6351,4.199074,0.1145444,0.30382581,291.0203,08/27.0/2021,2000,g 12.0,4.0
# From MPC102102
171P/Spahr,e,21.9350,101.6942,347.0730,3.555214,0.1470298,0.50160699,140.6695,08/27.0/2021,2000,g 13.5,4.0
# From MPEC 2021-BE3
172P/Yeung,e,11.2278,30.8895,209.4117,4.213402,0.1139606,0.20534262,185.5846,08/27.0/2021,2000,g 13.0,4.0
# From MPEC 2021-J28
173P/Mueller,e,16.4942,100.4024,29.2053,5.705205,0.0723265,0.26084972,351.9046,08/27.0/2021,2000,g  7.5,4.0
# From MPC 92985
174P/Echeclus,e,4.3434,173.2137,163.1264,10.72170,0.0280743,0.45743829,65.0076,08/27.0/2021,2000,g  9.4,2.0
# From MPC114608
175P/Hergenrother,e,6.0340,123.3803,57.4903,3.460583,0.1531017,0.43536866,105.7368,08/27.0/2021,2000,g 14.0,4.0
# From MPC 89015
176P/LINEAR,e,0.2347,345.9317,34.9077,3.194740,0.1726040,0.19308302,281.7845,08/27.0/2021,2000,g 15.1,2.0
# From MPEC 2020-L06
177P/Barnard,e,31.2638,272.2165,60.2753,24.43041,0.0081622,0.95532623,44.6597,08/27.0/2021,2000,g 15.0,4.0
# From MPEC 2021-F20
178P/Hug-Bell,e,11.0885,102.8714,297.7927,3.632054,0.1423887,0.48209745,57.8573,08/27.0/2021,2000,g 14.6,4.0
# From MPC 75723
179P/Jedicke,e,19.8979,115.5183,296.8223,5.934329,0.0681784,0.30602643,341.2080,08/27.0/2021,2000,g  2.5,8.0
# From MPC100284
180P/NEAT,e,16.8655,84.5689,94.7868,3.863443,0.1297903,0.35302750,271.1393,08/27.0/2021,2000,g 11.0,4.0
# From MPC 89012
181P/Shoemaker-Levy,e,17.4856,35.4083,336.2342,3.873824,0.1292690,0.70061078,342.5801,08/27.0/2021,2000,g 11.5,4.0
# From MPEC 2014-J10
182P/LONEOS,e,16.2244,72.4773,54.1891,2.951684,0.1943566,0.66317019,309.8090,08/27.0/2021,2000,g 18.0,4.0
# From MPC110085
183P/Korlevic-Juric,e,18.8298,4.3985,166.8715,4.549007,0.1015849,0.13459527,138.3268,08/27.0/2021,2000,g 12.5,2.0
# From MPEC 2020-W26
184P/Lovas,e,4.5732,173.2497,186.4642,3.794093,0.1333651,0.55101634,40.6456,08/27.0/2021,2000,g 13.5,4.0
# From MPC109593
185P/Petriew,e,14.0082,214.1005,181.8736,3.098795,0.1806820,0.69933284,236.2202,08/27.0/2021,2000,g 15.0,4.0
# From MPEC 2020-W26
186P/Garradd,e,28.8670,326.6381,275.4741,4.918341,0.0903600,0.12156789,82.9983,08/27.0/2021,2000,g  7.5,4.0
# From MPEC 2020-SI8
187P/LINEAR,e,13.6342,109.9160,131.8004,4.569019,0.1009182,0.15206382,121.1209,08/27.0/2021,2000,g  9.0,4.0
# From MPC106349
188P/LINEAR-Mueller,e,10.5252,358.9638,26.5625,4.373723,0.1077525,0.41601129,177.8885,08/27.0/2021,2000,g 11.5,4.0
# From MPC106349
189P/NEAT,e,20.0693,281.7288,16.2976,2.946385,0.1948811,0.58875550,288.5161,08/27.0/2021,2000,g 19.0,4.0
# From MPEC 2020-K19
190P/Mueller,e,2.1743,335.5796,50.2821,4.233682,0.1131427,0.52154601,222.4874,08/27.0/2021,2000,g 13.0,4.0
# From MPEC 2021-BE3
191P/McNaught,e,8.8427,98.2326,284.0181,3.634453,0.1422478,0.38581759,22.7394,08/27.0/2021,2000,g 13.0,4.0
# From MPC 75724
192P/Shoemaker-Levy,e,24.5623,51.6185,312.9756,6.475624,0.0598111,0.77329303,300.1047,08/27.0/2021,2000,g 15.0,4.0
# From MPEC 2021-P47
193P/LINEAR-NEAT,e,10.6885,335.1745,8.1059,3.579294,0.1455486,0.39427993,0.2501,08/27.0/2021,2000,g 14.0,4.0
# From MPC 98566
194P/LINEAR,e,11.6105,350.2864,131.5092,3.991403,0.1235992,0.58393825,250.1573,08/27.0/2021,2000,g 16.0,4.0
# From MPC 75724
195P/Hill,e,36.3338,243.1220,249.2938,6.503859,0.0594220,0.31341711,274.9589,08/27.0/2021,2000,g  8.5,4.0
# From MPC 92985
196P/Tichy,e,19.2925,24.1571,12.1933,3.802841,0.1329052,0.42856278,303.0116,08/27.0/2021,2000,g 13.5,4.0
# From MPC 94676
197P/LINEAR,e,25.5329,66.3803,188.7503,2.867755,0.2029509,0.62954765,265.0863,08/27.0/2021,2000,g 16.5,2.0
# From NK 1596
198P/ODAS,e,1.3388,358.2550,69.1836,3.598483,0.1443859,0.44347697,142.5352,08/27.0/2021,2000,g  9.0,4.0
# From MPC 75725
199P/Shoemaker,e,24.9320,92.3771,191.6853,5.892408,0.0689072,0.50597782,311.0101,08/27.0/2021,2000,g 10.0,4.0
# From MPEC 2021-F20
200P/Larsen,e,12.0998,234.7861,134.1115,4.941677,0.0897207,0.33262008,68.1630,08/27.0/2021,2000,g  9.0,4.0
# From MPC 93588
201P/LONEOS,e,5.7390,19.7479,41.5450,3.353850,0.1604681,0.63702385,14.8152,08/27.0/2021,2000,g 14.0,4.0
# From MPEC 2021-N06
202P/Scotti,e,2.0862,177.9939,277.2259,4.062396,0.1203735,0.26571565,239.5521,08/27.0/2021,2000,g 13.5,4.0
# From MPEC 2021-F20
203P/Korlevic,e,2.9729,290.3414,154.7993,4.670779,0.0976383,0.31518296,52.7548,08/27.0/2021,2000,g 12.7,4.0
# From MPC 98566
204P/LINEAR-NEAT,e,6.5999,108.5846,356.3242,3.590756,0.1448522,0.48821283,295.3392,08/27.0/2021,2000,g 14.0,4.0
# From MPC 98566
205P/Giacobini,e,15.3045,179.6052,154.2097,3.542574,0.1478174,0.56808578,339.3899,08/27.0/2021,2000,g 13.0,4.0
# From MPC 75725
206P/Barnard-Boattini,e,33.6332,202.3442,189.4783,3.487849,0.1513100,0.55136379,26.5539,08/27.0/2021,2000,g 19.0,4.0
# From MPC 75725
207P/NEAT,e,10.1849,198.3688,272.9800,3.871114,0.1294047,0.75920741,245.1017,08/27.0/2021,2000,g 16.0,4.0
# From MPEC 2020-W26
208P/McMillan,e,4.4111,36.3438,310.4675,4.045037,0.1211491,0.37392496,227.6698,08/27.0/2021,2000,g 12.5,4.0
# From MPC 90771
209P/LINEAR,e,21.2560,62.7732,152.4626,2.959967,0.1935413,0.67304807,156.0932,08/27.0/2021,2000,g 17.0,2.0
# From MPC105242
210P/Christensen,e,10.2632,93.8294,345.8953,3.164127,0.1751149,0.83322319,88.6276,08/27.0/2021,2000,g 13.5,4.0
# From MPC 96868
211P/Hill,e,18.9212,117.1328,4.2619,3.546004,0.1476030,0.34343650,300.4279,08/27.0/2021,2000,g 12.5,4.0
# From MPEC 2021-F20
212P/NEAT,e,22.2383,98.2947,14.0823,3.888904,0.1285178,0.58807133,235.0374,08/27.0/2021,2000,g 17.0,2.0
# From MPC114608
213P/Van Ness,e,10.3824,311.2991,5.6546,3.347574,0.1609195,0.40826926,230.2780,08/27.0/2021,2000,g 10.5,4.0
# From MPC 92986
214P/LINEAR,e,15.1834,348.2498,190.2299,3.618114,0.1432124,0.48579273,303.3857,08/27.0/2021,2000,g 13.0,4.0
# From MPC133426
215P/NEAT,e,10.5806,56.6850,262.1957,4.328155,0.1094586,0.16676597,70.8301,08/27.0/2021,2000,g 12.6,4.0
# From MPC100284
216P/LINEAR,e,9.0610,359.8089,151.3616,3.867636,0.1295793,0.44687567,248.1207,08/27.0/2021,2000,g 13.0,4.0
# From MPEC 2021-N06
